STARLINK-32426          
1 61681U 24193W   26068.50230905 -.00002193  00000+0 -61998-4 0  9990
2 61681  53.1606  92.1809 0001259  78.0470 282.0672 15.30175538 76498
2025-313BE              
1 67482U 25313BE  26068.69721505  .00077178  00000+0  26504-2 0  9996
2 67482  97.3989 145.3568 0007208 335.3714  24.7181 15.29801687  7972
